{
  "type": "FeatureCollection",
  "features": [
    {
      "type": "Feature",
      "properties": {
        "NAME": "NORTH TABOR",
        "MAPLABEL": "North Tabor",
        "TreeTotal": 2376,
        "Dead": 15,
        "Poor": 156,
        "Fair": 1750,
        "Good": 455,
        "pct_Dead": 0.631313,
        "pct_Poor": 6.56566,
        "pct_Good": 19.1498,
        "pct_Fair": 73.6532
      },
      "geometry": {
        "type": "MultiPolygon",
        "coordinates": [
          [
            [
              [
                -122.59678120648248,
                45.53168988312367
              ],
              [
                -122.596451700843,
                45.531857938569
              ],
              [
                -122.59642104942719,
                45.53187358690118
              ],
              [
                -122.59341808114537,
                45.53337951288112
              ],
              [
                -122.59239116933338,
                45.53390286249574
              ],
              [
                -122.59241534209936,
                45.5333936581076
              ],
              [
                -122.59285415204768,
                45.53285444111845
              ],
              [
                -122.59286752436898,
                45.53162884263672
              ],
              [
                -122.59286869577211,
                45.53155474443085
              ],
              [
                -122.59287349457236,
                45.53073192307412
              ],
              [
                -122.59287508369212,
                45.530457364688516
              ],
              [
                -122.59287432371735,
                45.53038381557468
              ],
              [
                -122.59340351047148,
                45.53039081021756
              ],
              [
                -122.59340952469229,
                45.53018338769436
              ],
              [
                -122.59348862045475,
                45.52417742416569
              ],
              [
                -122.59337119717239,
                45.52406261742347
              ],
              [
                -122.59335334674937,
                45.524001897819076
              ],
              [
                -122.59334691211698,
                45.523933253125094
              ],
              [
                -122.59331599569818,
                45.523835732817766
              ],
              [
                -122.59328845604651,
                45.5237769042301
              ],
              [
                -122.59325323669748,
                45.52372147419078
              ],
              [
                -122.59320210548984,
                45.52365793148089
              ],
              [
                -122.59313543612268,
                45.52359638570159
              ],
              [
                -122.59305498210755,
                45.52353149032503
              ],
              [
                -122.59298909068144,
                45.523491022801416
              ],
              [
                -122.59254224350627,
                45.523227715702696
              ],
              [
                -122.59275024481708,
                45.523152766208916
              ],
              [
                -122.59714370993728,
                45.52311604888219
              ],
              [
                -122.59855946650316,
                45.52287654387626
              ],
              [
                -122.6134662387869,
                45.522905814520236
              ],
              [
                -122.61346504492592,
                45.52282129987634
              ],
              [
                -122.61346478171951,
                45.5225520872685
              ],
              [
                -122.61346594503782,
                45.52247850264247
              ],
              [
                -122.61319668760783,
                45.522479853934364
              ],
              [
                -122.6131593410482,
                45.52247265312791
              ],
              [
                -122.61312003795788,
                45.52246531574365
              ],
              [
                -122.61307828695844,
                45.522444649842946
              ],
              [
                -122.61304368026042,
                45.52240618991112
              ],
              [
                -122.61303099065871,
                45.522379843769585
              ],
              [
                -122.6130223030516,
                45.52235616873609
              ],
              [
                -122.61302250696916,
                45.5193201835732
              ],
              [
                -122.61302293905884,
                45.519279364320724
              ],
              [
                -122.61732214215965,
                45.51928664421362
              ],
              [
                -122.61730479658982,
                45.53164300529418
              ],
              [
                -122.61652768649542,
                45.53126892707111
              ],
              [
                -122.615809039658,
                45.53083975308363
              ],
              [
                -122.61538843856052,
                45.53049957223961
              ],
              [
                -122.61502483826277,
                45.53027477266143
              ],
              [
                -122.61162682864823,
                45.52812419771125
              ],
              [
                -122.61112925181234,
                45.52786463727785
              ],
              [
                -122.6105828937616,
                45.52765775673016
              ],
              [
                -122.61001074507902,
                45.52749198704798
              ],
              [
                -122.60941483056733,
                45.52736934748983
              ],
              [
                -122.60880495084622,
                45.52729103092246
              ],
              [
                -122.60863660476535,
                45.52727748706162
              ],
              [
                -122.60731620706183,
                45.5273538369868
              ],
              [
                -122.6060083219919,
                45.52750453274007
              ],
              [
                -122.60474447593045,
                45.52779038747975
              ],
              [
                -122.60392560675174,
                45.52802367083629
              ],
              [
                -122.59995915759849,
                45.53006492249562
              ],
              [
                -122.59678120648248,
                45.53168988312367
              ]
            ]
          ]
        ]
      }
    }
  ]
}