{
  "type": "FeatureCollection",
  "features": [
    {
      "type": "Feature",
      "properties": {
        "NAME": "RICHMOND",
        "MAPLABEL": "Richmond",
        "TreeTotal": 6183,
        "Dead": 35,
        "Poor": 460,
        "Fair": 1925,
        "Good": 3763,
        "pct_Dead": 0.566068,
        "pct_Poor": 7.43975,
        "pct_Good": 60.8604,
        "pct_Fair": 31.1338
      },
      "geometry": {
        "type": "MultiPolygon",
        "coordinates": [
          [
            [
              [
                -122.63612974525846,
                45.512075137734605
              ],
              [
                -122.61237267377747,
                45.512028450035984
              ],
              [
                -122.61160546581245,
                45.51201751871565
              ],
              [
                -122.61119609006275,
                45.50530934103344
              ],
              [
                -122.61104978863895,
                45.50530979999587
              ],
              [
                -122.60900571263413,
                45.50532282659533
              ],
              [
                -122.60906175942301,
                45.497532986518124
              ],
              [
                -122.6117433823614,
                45.497519036915925
              ],
              [
                -122.61941935890343,
                45.4975234030146
              ],
              [
                -122.62092217389842,
                45.49744061709197
              ],
              [
                -122.63055732666777,
                45.49678763631112
              ],
              [
                -122.63236895910126,
                45.49682603630232
              ],
              [
                -122.63470578976896,
                45.49713655742554
              ],
              [
                -122.63557261191588,
                45.497363599427196
              ],
              [
                -122.63561056393998,
                45.50480675916097
              ],
              [
                -122.63575494027413,
                45.50480699021818
              ],
              [
                -122.63667386919909,
                45.50480824875609
              ],
              [
                -122.63671597323643,
                45.50489028975261
              ],
              [
                -122.63672550885319,
                45.505506747428015
              ],
              [
                -122.63673179975511,
                45.5061925421906
              ],
              [
                -122.63673636589172,
                45.5067806263774
              ],
              [
                -122.63573938863992,
                45.5067799609307
              ],
              [
                -122.63575190037521,
                45.508461583202966
              ],
              [
                -122.63614798105871,
                45.508462106353086
              ],
              [
                -122.63612974525846,
                45.512075137734605
              ]
            ]
          ]
        ]
      }
    }
  ]
}