{
  "type": "FeatureCollection",
  "features": [
    {
      "type": "Feature",
      "properties": {
        "NAME": "SOUTH TABOR",
        "MAPLABEL": "South Tabor",
        "TreeTotal": 2571,
        "Dead": 17,
        "Poor": 318,
        "Fair": 1112,
        "Good": 1124,
        "pct_Dead": 0.661221,
        "pct_Poor": 12.3687,
        "pct_Good": 43.7184,
        "pct_Fair": 43.2517
      },
      "geometry": {
        "type": "MultiPolygon",
        "coordinates": [
          [
            [
              [
                -122.60900571263413,
                45.50532282659533
              ],
              [
                -122.58526932037098,
                45.505384238116164
              ],
              [
                -122.5824807323368,
                45.50541699249482
              ],
              [
                -122.58120403767185,
                45.505288546693556
              ],
              [
                -122.57897652748264,
                45.504873445261815
              ],
              [
                -122.57869526317053,
                45.50470431697745
              ],
              [
                -122.5787153207542,
                45.497416610436154
              ],
              [
                -122.60906175942301,
                45.497532986518124
              ],
              [
                -122.60900571263413,
                45.50532282659533
              ]
            ]
          ]
        ]
      }
    }
  ]
}